[
    {
        "Altitude(m)": 571642.7845303556,
        "Argument of Periapsis(deg)": 0.026491964442854003,
        "Eccentricity": 0.0,
        "Inclination(deg)": 53.0,
        "Latitude(deg)": -52.62897589888566,
        "Longitude(deg)": 17.927648137200887,
        "Mean Anomaly(deg)": -83.26992852968964,
        "RAAN(deg)": 199.96057347411207,
        "Satellite Name": "Starlink Shell 1 894",
        "Satellite Number": 894,
        "Semi-Major Axis(m)": 6931778.249405717,
        "Time(s)": 760
    },
    {
        "Altitude(m)": 571603.7969684423,
        "Argument of Periapsis(deg)": 0.02684054292236524,
        "Eccentricity": 0.0,
        "Inclination(deg)": 53.0,
        "Latitude(deg)": -52.528473499799325,
        "Longitude(deg)": 18.898210968056375,
        "Mean Anomaly(deg)": -82.64309732613289,
        "RAAN(deg)": 199.9600547040346,
        "Satellite Name": "Starlink Shell 1 894",
        "Satellite Number": 894,
        "Semi-Major Axis(m)": 6931778.249405717,
        "Time(s)": 770
    },
    {
        "Altitude(m)": 571561.4242118892,
        "Argument of Periapsis(deg)": 0.027189121401876473,
        "Eccentricity": 0.0,
        "Inclination(deg)": 53.0,
        "Latitude(deg)": -52.4193636573332,
        "Longitude(deg)": 19.86397656516775,
        "Mean Anomaly(deg)": -82.01626612257624,
        "RAAN(deg)": 199.95953593395714,
        "Satellite Name": "Starlink Shell 1 894",
        "Satellite Number": 894,
        "Semi-Major Axis(m)": 6931778.249405717,
        "Time(s)": 780
    },
    {
        "Altitude(m)": 571515.6831409066,
        "Argument of Periapsis(deg)": 0.02753769988138771,
        "Eccentricity": 0.0,
        "Inclination(deg)": 53.0,
        "Latitude(deg)": -52.301721711175816,
        "Longitude(deg)": 20.82459899235805,
        "Mean Anomaly(deg)": -81.38943491901946,
        "RAAN(deg)": 199.95901716387965,
        "Satellite Name": "Starlink Shell 1 894",
        "Satellite Number": 894,
        "Semi-Major Axis(m)": 6931778.249405717,
        "Time(s)": 790
    },
    {
        "Altitude(m)": 571466.5919766459,
        "Argument of Periapsis(deg)": 0.02788627836089895,
        "Eccentricity": 0.0,
        "Inclination(deg)": 53.0,
        "Latitude(deg)": -52.17562792565686,
        "Longitude(deg)": 21.77974548750307,
        "Mean Anomaly(deg)": -80.76260371546282,
        "RAAN(deg)": 199.95849839380216,
        "Satellite Name": "Starlink Shell 1 894",
        "Satellite Number": 894,
        "Semi-Major Axis(m)": 6931778.249405717,
        "Time(s)": 800
    },
    {
        "Altitude(m)": 571414.1702732948,
        "Argument of Periapsis(deg)": 0.02823485684041019,
        "Eccentricity": 0.0,
        "Inclination(deg)": 53.0,
        "Latitude(deg)": -52.04116723502662,
        "Longitude(deg)": 22.729097576614095,
        "Mean Anomaly(deg)": -80.13577251190605,
        "RAAN(deg)": 199.9579796237247,
        "Satellite Name": "Starlink Shell 1 894",
        "Satellite Number": 894,
        "Semi-Major Axis(m)": 6931778.249405717,
        "Time(s)": 810
    },
    {
        "Altitude(m)": 571358.4389096247,
        "Argument of Periapsis(deg)": 0.028583435319921423,
        "Eccentricity": 0.0,
        "Inclination(deg)": 53.0,
        "Latitude(deg)": -51.89842898006384,
        "Longitude(deg)": 23.67235210177449,
        "Mean Anomaly(deg)": -79.50894130834929,
        "RAAN(deg)": 199.9574608536472,
        "Satellite Name": "Starlink Shell 1 894",
        "Satellite Number": 894,
        "Semi-Major Axis(m)": 6931778.249405717,
        "Time(s)": 820
    },
    {
        "Altitude(m)": 571299.420079947,
        "Argument of Periapsis(deg)": 0.028932013799432665,
        "Eccentricity": 0.0,
        "Inclination(deg)": 53.0,
        "Latitude(deg)": -51.74750663763411,
        "Longitude(deg)": 24.60922065112393,
        "Mean Anomaly(deg)": -78.88211010479264,
        "RAAN(deg)": 199.95694208356974,
        "Satellite Name": "Starlink Shell 1 894",
        "Satellite Number": 894,
        "Semi-Major Axis(m)": 6931778.249405717,
        "Time(s)": 830
    },
    {
        "Altitude(m)": 571237.1372845029,
        "Argument of Periapsis(deg)": 0.029280592278943897,
        "Eccentricity": 0.0,
        "Inclination(deg)": 53.0,
        "Latitude(deg)": -51.58849754499921,
        "Longitude(deg)": 25.539430416707905,
        "Mean Anomaly(deg)": -78.2552789012359,
        "RAAN(deg)": 199.9564233134923,
        "Satellite Name": "Starlink Shell 1 894",
        "Satellite Number": 894,
        "Semi-Major Axis(m)": 6931778.249405717,
        "Time(s)": 840
    },
    {
        "Altitude(m)": 571171.6153192761,
        "Argument of Periapsis(deg)": 0.029629170758455132,
        "Eccentricity": 0.0,
        "Inclination(deg)": 53.0,
        "Latitude(deg)": -51.42150262058102,
        "Longitude(deg)": 26.4627249687552,
        "Mean Anomaly(deg)": -77.62844769767922,
        "RAAN(deg)": 199.95590454341482,
        "Satellite Name": "Starlink Shell 1 894",
        "Satellite Number": 894,
        "Semi-Major Axis(m)": 6931778.249405717,
        "Time(s)": 850
    },
    {
        "Altitude(m)": 571102.8802652385,
        "Argument of Periapsis(deg)": 0.02997774923796637,
        "Eccentricity": 0.0,
        "Inclination(deg)": 53.0,
        "Latitude(deg)": -51.24662608283548,
        "Longitude(deg)": 27.378863267487535,
        "Mean Anomaly(deg)": -77.00161649412244,
        "RAAN(deg)": 199.95538577333735,
        "Satellite Name": "Starlink Shell 1 894",
        "Satellite Number": 894,
        "Semi-Major Axis(m)": 6931778.249405717,
        "Time(s)": 860
    },
    {
        "Altitude(m)": 571030.9594770587,
        "Argument of Periapsis(deg)": 0.030326327717477602,
        "Eccentricity": 0.0,
        "Inclination(deg)": 53.0,
        "Latitude(deg)": -51.06397516881438,
        "Longitude(deg)": 28.28762111759216,
        "Mean Anomaly(deg)": -76.37478529056571,
        "RAAN(deg)": 199.9548670032599,
        "Satellite Name": "Starlink Shell 1 894",
        "Satellite Number": 894,
        "Semi-Major Axis(m)": 6931778.249405717,
        "Time(s)": 870
    },
    {
        "Altitude(m)": 570955.8815712223,
        "Argument of Periapsis(deg)": 0.030674906196988847,
        "Eccentricity": 0.0,
        "Inclination(deg)": 53.0,
        "Latitude(deg)": -50.87365985392431,
        "Longitude(deg)": 29.188790025734562,
        "Mean Anomaly(deg)": -75.74795408700903,
        "RAAN(deg)": 199.9543482331824,
        "Satellite Name": "Starlink Shell 1 894",
        "Satellite Number": 894,
        "Semi-Major Axis(m)": 6931778.249405717,
        "Time(s)": 880
    },
    {
        "Altitude(m)": 570877.6764136117,
        "Argument of Periapsis(deg)": 0.031023484676500086,
        "Eccentricity": 0.0,
        "Inclination(deg)": 53.0,
        "Latitude(deg)": -50.67579257428398,
        "Longitude(deg)": 30.0821776673077,
        "Mean Anomaly(deg)": -75.12112288345229,
        "RAAN(deg)": 199.95382946310494,
        "Satellite Name": "Starlink Shell 1 894",
        "Satellite Number": 894,
        "Semi-Major Axis(m)": 6931778.249405717,
        "Time(s)": 890
    },
    {
        "Altitude(m)": 570796.3751065566,
        "Argument of Periapsis(deg)": 0.03137206315601132,
        "Eccentricity": 0.0,
        "Inclination(deg)": 53.0,
        "Latitude(deg)": -50.47048795299056,
        "Longitude(deg)": 30.9676082856305,
        "Mean Anomaly(deg)": -74.49429167989564,
        "RAAN(deg)": 199.95331069302745,
        "Satellite Name": "Starlink Shell 1 894",
        "Satellite Number": 894,
        "Semi-Major Axis(m)": 6931778.249405717,
        "Time(s)": 900
    },
    {
        "Altitude(m)": 570712.0099753111,
        "Argument of Periapsis(deg)": 0.03172064163552255,
        "Eccentricity": 0.0,
        "Inclination(deg)": 53.0,
        "Latitude(deg)": -50.25786253149571,
        "Longitude(deg)": 31.844921515244607,
        "Mean Anomaly(deg)": -73.86746047633895,
        "RAAN(deg)": 199.95279192294998,
        "Satellite Name": "Starlink Shell 1 894",
        "Satellite Number": 894,
        "Semi-Major Axis(m)": 6931778.249405717,
        "Time(s)": 910
    },
    {
        "Altitude(m)": 570624.614554019,
        "Argument of Periapsis(deg)": 0.0320692201150338,
        "Eccentricity": 0.0,
        "Inclination(deg)": 53.0,
        "Latitude(deg)": -50.03803450717364,
        "Longitude(deg)": 32.713972659821984,
        "Mean Anomaly(deg)": -73.2406292727821,
        "RAAN(deg)": 199.9522731528725,
        "Satellite Name": "Starlink Shell 1 894",
        "Satellite Number": 894,
        "Semi-Major Axis(m)": 6931778.249405717,
        "Time(s)": 920
    },
    {
        "Altitude(m)": 570534.2235711305,
        "Argument of Periapsis(deg)": 0.032417798594545036,
        "Eccentricity": 0.0,
        "Inclination(deg)": 53.0,
        "Latitude(deg)": -49.81112347805525,
        "Longitude(deg)": 33.574632916760535,
        "Mean Anomaly(deg)": -72.61379806922545,
        "RAAN(deg)": 199.95175438279503,
        "Satellite Name": "Starlink Shell 1 894",
        "Satellite Number": 894,
        "Semi-Major Axis(m)": 6931778.249405717,
        "Time(s)": 930
    },
    {
        "Altitude(m)": 570440.8729343058,
        "Argument of Periapsis(deg)": 0.03276637707405627,
        "Eccentricity": 0.0,
        "Inclination(deg)": 53.0,
        "Latitude(deg)": -49.57725019558552,
        "Longitude(deg)": 34.42678804065757,
        "Mean Anomaly(deg)": -71.98696686566878,
        "RAAN(deg)": 199.95123561271754,
        "Satellite Name": "Starlink Shell 1 894",
        "Satellite Number": 894,
        "Semi-Major Axis(m)": 6931778.249405717,
        "Time(s)": 940
    }
]